IRIDIUM 155             
1 43573U 18061E   25135.29100161 -.00000023  00000+0 -15269-4 0  9997
2 43573  86.4004 222.9054 0002298 102.6564 257.4889 14.34217483356324
IRIDIUM 154             
1 43574U 18061F   25135.34174200  .00000084  00000+0  22757-4 0  9994
2 43574  86.4009 222.9979 0002295  96.1757 263.9700 14.34217166356382
IRIDIUM 163             
1 43575U 18061G   25135.32271386 -.00000016  00000+0 -12832-4 0  9996
2 43575  86.4006 222.9339 0002011  98.5705 261.5718 14.34217568356351
IRIDIUM 156             
1 43576U 18061H   25135.57641853  .00000101  00000+0  28908-4 0  9998
2 43576  86.4005 222.8347 0002557 101.8371 258.3112 14.34217999356384
IRIDIUM 164             
1 43577U 18061J   25135.76669597 -.00000045  00000+0 -23019-4 0  9992
2 43577  86.4007 222.7892 0002378  91.1990 268.9478 14.34217429356458
IRIDIUM 159             
1 43578U 18061K   25136.22336243  .00000077  00000+0  20294-4 0  9999
2 43578  86.4009 222.5440 0002146  90.1008 270.0434 14.34218018356484
IRIDIUM 180             
1 43922U 19002A   25136.08332036  .00000012  00000+0 -29396-5 0  9991
2 43922  86.3984 159.5895 0002223  93.5680 266.5770 14.34217466332113
IRIDIUM 176             
1 43923U 19002B   25136.09164828  .00000332  00000+0  48819-4 0  9999
2 43923  86.6110 159.5820 0002183 107.1531 252.9926 14.72248022340821
IRIDIUM 168             
1 43924U 19002C   25136.07697737  .00000046  00000+0  93181-5 0  9993
2 43924  86.3987 159.6580 0002322  92.6005 267.5457 14.34217516332053
IRIDIUM 173             
1 43925U 19002D   25135.57591241  .00000074  00000+0  19462-4 0  9991
2 43925  86.3982 159.7726 0002181  95.6251 264.5194 14.34217513331973
IRIDIUM 169             
1 43926U 19002E   25135.53234566  .00000367  00000+0  11338-3 0  9990
2 43926  86.4276 191.3612 0002774 126.3498 233.7957 14.38605935333059
IRIDIUM 172             
1 43927U 19002F   25135.43003140  .00000172  00000+0  54522-4 0  9999
2 43927  86.3983 159.8398 0002031  89.6362 270.5067 14.34217598331959
IRIDIUM 175             
1 43928U 19002G   25135.40686983  .00000465  00000+0  69695-4 0  9991
2 43928  86.1476 114.2505 0003383  98.1968 261.9632 14.72244036340713
IRIDIUM 171             
1 43929U 19002H   25135.62031105  .00000155  00000+0  48113-4 0  9994
2 43929  86.3993 160.0228 0002678  90.4730 269.6773 14.34217729331975
IRIDIUM 170             
1 43930U 19002J   25136.09784889  .00000507  00000+0  76471-4 0  9991
2 43930  86.6109 159.5845 0002704  99.9839 260.1683 14.72252931340838
IRIDIUM 167             
1 43931U 19002K   25135.54420042 -.00000025  00000+0 -15895-4 0  9999
2 43931  86.3986 159.8114 0002728  96.5133 263.6374 14.34217448331968
IRIDIUM 181             
1 56726U 23068S   25135.29440809  .00000265  00000+0  72740-4 0  9993
2 56726  86.4544 222.9600 0002786  86.4066 273.7454 14.43307308105048
IRIDIUM 177             
1 56727U 23068T   25136.09552990  .00000292  00000+0  34846-4 0  9993
2 56727  86.1978 157.3585 0002809  92.1502 268.0041 14.80221707107629
IRIDIUM 174             
1 56728U 23068U   25136.08558167  .00000822  00000+0  12641-3 0  9992
2 56728  86.6122 159.6966 0001276  70.3939 289.7416 14.72265890107597
IRIDIUM 178             
1 56729U 23068V   25136.21983565  .00001013  00000+0  12990-3 0  9992
2 56729  86.6592 191.1671 0002225  88.9255 271.2222 14.80224406107648
IRIDIUM 179             
1 56730U 23068W   25136.21447419  .00001154  00000+0  14844-3 0  9993
2 56730  86.6835 198.9430 0002573  97.6955 262.4559 14.80229969107642
